ION SCV-017             
1 63230U 25052W   26068.71648816  .00006457  00000+0  24539-3 0  9998
2 63230  97.4016 324.7516 0023746  44.9875 315.3282 15.26881798 54851
STARLINK-35821          
1 66372U 25254AA  26068.72385447  .00033273  00000+0  11301-2 0  9999
2 66372  53.1584 229.9257 0001062  51.4783 308.6312 15.30210868 19013
